2025-08-06 19:37:06,670 - src.stk_interface.stk_manager - WARNING - âš ï¸ è®¾ç½®åœ†é”¥å‚æ•°å¤±è´¥: (-2147352567, 'å‘ç”Ÿæ„å¤–ã€‚', (0, None, 'Value 1.04719755 rad is invalid. Value range is 5.23598776 rad to 6.28318531 rad', None, 0, -2147220989), None)
2025-08-06 19:37:06,679 - src.stk_interface.stk_manager - INFO - âœ“ å•ç‹¬è®¾ç½®å¤–é”¥è§’æˆåŠŸ: 90.0Â°
2025-08-06 19:37:06,681 - src.stk_interface.stk_manager - INFO - âœ… åœ†é”¥è§†åœºé…ç½®æˆåŠŸ
2025-08-06 19:37:06,737 - src.stk_interface.stk_manager - INFO - âœ… æŒ‡å‘å‚æ•°é…ç½®æˆåŠŸ
2025-08-06 19:37:07,340 - src.stk_interface.stk_manager - INFO - âœ“ è·ç¦»çº¦æŸè®¾ç½®æˆåŠŸ: 0-5000km
2025-08-06 19:37:07,345 - src.stk_interface.stk_manager - INFO - âœ… çº¦æŸå‚æ•°é…ç½®æˆåŠŸ
2025-08-06 19:37:07,345 - src.stk_interface.stk_manager - INFO - âœ… ä¼ æ„Ÿå™¨åˆ›å»ºæˆåŠŸ: Satellite01_Payload
2025-08-06 19:37:07,348 - src.constellation.constellation_manager - INFO - âœ… å«æ˜Ÿåˆ›å»ºæˆåŠŸ: Satellite01 (è½¨é“é¢1, ä½ç½®1)
2025-08-06 19:37:07,407 - src.stk_interface.stk_manager - INFO - ğŸ›°ï¸ åˆ›å»ºå«æ˜Ÿå¯¹è±¡: Satellite02
2025-08-06 19:37:09,437 - src.stk_interface.stk_manager - INFO - âœ… ä¼ æ’­å™¨ç±»å‹è®¾ç½®æˆåŠŸ
2025-08-06 19:37:09,437 - src.stk_interface.stk_manager - INFO - âœ… å‚æ•° semi_axis = 8171.0 éªŒè¯é€šè¿‡
2025-08-06 19:37:09,437 - src.stk_interface.stk_manager - INFO - âœ… å‚æ•° eccentricity = 0.0 éªŒè¯é€šè¿‡
2025-08-06 19:37:09,437 - src.stk_interface.stk_manager - INFO - âœ… å‚æ•° inclination = 51.856 éªŒè¯é€šè¿‡
2025-08-06 19:37:09,437 - src.stk_interface.stk_manager - INFO - âœ… å‚æ•° raan = 0.0 éªŒè¯é€šè¿‡
2025-08-06 19:37:09,438 - src.stk_interface.stk_manager - INFO - âœ… å‚æ•° arg_of_perigee = 0.0 éªŒè¯é€šè¿‡
2025-08-06 19:37:09,438 - src.stk_interface.stk_manager - INFO - âœ… å‚æ•° mean_anomaly = 45.0 éªŒè¯é€šè¿‡
2025-08-06 19:37:09,438 - src.stk_interface.stk_manager - INFO - ğŸ”„ ä½¿ç”¨Kepleriané«˜åº¦æ–¹æ³•...
2025-08-06 19:37:09,849 - src.stk_interface.stk_manager - INFO - âœ… Kepleriané«˜åº¦æ–¹æ³•æˆåŠŸ
2025-08-06 19:37:09,957 - src.stk_interface.stk_manager - INFO - âœ… åœ°é¢è½¨è¿¹é…ç½®æˆåŠŸ
2025-08-06 19:37:09,966 - src.stk_interface.stk_manager - INFO - âœ… å«æ˜Ÿåˆ›å»ºæˆåŠŸ: Satellite02
2025-08-06 19:37:10,090 - src.stk_interface.stk_manager - INFO - ğŸ”­ åˆ›å»ºä¼ æ„Ÿå™¨: Satellite02_Payload
2025-08-06 19:37:11,102 - src.stk_interface.stk_manager - INFO - âœ“ ä¼ æ„Ÿå™¨æ¨¡å¼è®¾ç½®ä¸ºåœ†é”¥
2025-08-06 19:37:11,319 - src.stk_interface.stk_manager - INFO - âœ“ è·å–Patternå¯¹è±¡æˆåŠŸï¼Œç±»å‹: <class 'win32com.client.CDispatch'>
2025-08-06 19:37:11,330 - src.stk_interface.stk_manager - INFO - âœ“ è®¾ç½®å¤–é”¥è§’æˆåŠŸ: 90.0Â°
2025-08-06 19:37:11,344 - src.stk_interface.stk_manager - INFO - âœ“ è®¾ç½®å†…é”¥è§’æˆåŠŸ: 66.0Â°
2025-08-06 19:37:11,370 - src.stk_interface.stk_manager - WARNING - âš ï¸ è®¾ç½®åœ†é”¥å‚æ•°å¤±è´¥: (-2147352567, 'å‘ç”Ÿæ„å¤–ã€‚', (0, None, 'Value 1.04719755 rad is invalid. Value range is 5.23598776 rad to 6.28318531 rad', None, 0, -2147220989), None)
2025-08-06 19:37:11,378 - src.stk_interface.stk_manager - INFO - âœ“ å•ç‹¬è®¾ç½®å¤–é”¥è§’æˆåŠŸ: 90.0Â°
2025-08-06 19:37:11,381 - src.stk_interface.stk_manager - INFO - âœ… åœ†é”¥è§†åœºé…ç½®æˆåŠŸ
2025-08-06 19:37:11,435 - src.stk_interface.stk_manager - INFO - âœ… æŒ‡å‘å‚æ•°é…ç½®æˆåŠŸ
2025-08-06 19:37:12,076 - src.stk_interface.stk_manager - INFO - âœ“ è·ç¦»çº¦æŸè®¾ç½®æˆåŠŸ: 0-5000km
2025-08-06 19:37:12,080 - src.stk_interface.stk_manager - INFO - âœ… çº¦æŸå‚æ•°é…ç½®æˆåŠŸ
2025-08-06 19:37:12,081 - src.stk_interface.stk_manager - INFO - âœ… ä¼ æ„Ÿå™¨åˆ›å»ºæˆåŠŸ: Satellite02_Payload
2025-08-06 19:37:12,083 - src.constellation.constellation_manager - INFO - âœ… å«æ˜Ÿåˆ›å»ºæˆåŠŸ: Satellite02 (è½¨é“é¢1, ä½ç½®2)
2025-08-06 19:37:12,147 - src.stk_interface.stk_manager - INFO - ğŸ›°ï¸ åˆ›å»ºå«æ˜Ÿå¯¹è±¡: Satellite03
2025-08-06 19:37:14,176 - src.stk_interface.stk_manager - INFO - âœ… ä¼ æ’­å™¨ç±»å‹è®¾ç½®æˆåŠŸ
2025-08-06 19:37:14,176 - src.stk_interface.stk_manager - INFO - âœ… å‚æ•° semi_axis = 8171.0 éªŒè¯é€šè¿‡
2025-08-06 19:37:14,177 - src.stk_interface.stk_manager - INFO - âœ… å‚æ•° eccentricity = 0.0 éªŒè¯é€šè¿‡
2025-08-06 19:37:14,177 - src.stk_interface.stk_manager - INFO - âœ… å‚æ•° inclination = 51.856 éªŒè¯é€šè¿‡
2025-08-06 19:37:14,177 - src.stk_interface.stk_manager - INFO - âœ… å‚æ•° raan = 0.0 éªŒè¯é€šè¿‡
2025-08-06 19:37:14,177 - src.stk_interface.stk_manager - INFO - âœ… å‚æ•° arg_of_perigee = 0.0 éªŒè¯é€šè¿‡
2025-08-06 19:37:14,177 - src.stk_interface.stk_manager - INFO - âœ… å‚æ•° mean_anomaly = 90.0 éªŒè¯é€šè¿‡
2025-08-06 19:37:14,177 - src.stk_interface.stk_manager - INFO - ğŸ”„ ä½¿ç”¨Kepleriané«˜åº¦æ–¹æ³•...
2025-08-06 19:37:14,551 - src.stk_interface.stk_manager - INFO - âœ… Kepleriané«˜åº¦æ–¹æ³•æˆåŠŸ
2025-08-06 19:37:14,656 - src.stk_interface.stk_manager - INFO - âœ… åœ°é¢è½¨è¿¹é…ç½®æˆåŠŸ
2025-08-06 19:37:14,662 - src.stk_interface.stk_manager - INFO - âœ… å«æ˜Ÿåˆ›å»ºæˆåŠŸ: Satellite03
2025-08-06 19:37:14,774 - src.stk_interface.stk_manager - INFO - ğŸ”­ åˆ›å»ºä¼ æ„Ÿå™¨: Satellite03_Payload
2025-08-06 19:37:15,789 - src.stk_interface.stk_manager - INFO - âœ“ ä¼ æ„Ÿå™¨æ¨¡å¼è®¾ç½®ä¸ºåœ†é”¥
2025-08-06 19:37:16,007 - src.stk_interface.stk_manager - INFO - âœ“ è·å–Patternå¯¹è±¡æˆåŠŸï¼Œç±»å‹: <class 'win32com.client.CDispatch'>
2025-08-06 19:37:16,019 - src.stk_interface.stk_manager - INFO - âœ“ è®¾ç½®å¤–é”¥è§’æˆåŠŸ: 90.0Â°
2025-08-06 19:37:16,034 - src.stk_interface.stk_manager - INFO - âœ“ è®¾ç½®å†…é”¥è§’æˆåŠŸ: 66.0Â°
2025-08-06 19:37:16,055 - src.stk_interface.stk_manager - WARNING - âš ï¸ è®¾ç½®åœ†é”¥å‚æ•°å¤±è´¥: (-2147352567, 'å‘ç”Ÿæ„å¤–ã€‚', (0, None, 'Value 1.04719755 rad is invalid. Value range is 5.23598776 rad to 6.28318531 rad', None, 0, -2147220989), None)
2025-08-06 19:37:16,061 - src.stk_interface.stk_manager - INFO - âœ“ å•ç‹¬è®¾ç½®å¤–é”¥è§’æˆåŠŸ: 90.0Â°
2025-08-06 19:37:16,063 - src.stk_interface.stk_manager - INFO - âœ… åœ†é”¥è§†åœºé…ç½®æˆåŠŸ
2025-08-06 19:37:16,116 - src.stk_interface.stk_manager - INFO - âœ… æŒ‡å‘å‚æ•°é…ç½®æˆåŠŸ
2025-08-06 19:37:16,711 - src.stk_interface.stk_manager - INFO - âœ“ è·ç¦»çº¦æŸè®¾ç½®æˆåŠŸ: 0-5000km
2025-08-06 19:37:16,715 - src.stk_interface.stk_manager - INFO - âœ… çº¦æŸå‚æ•°é…ç½®æˆåŠŸ
2025-08-06 19:37:16,716 - src.stk_interface.stk_manager - INFO - âœ… ä¼ æ„Ÿå™¨åˆ›å»ºæˆåŠŸ: Satellite03_Payload
2025-08-06 19:37:16,719 - src.constellation.constellation_manager - INFO - âœ… å«æ˜Ÿåˆ›å»ºæˆåŠŸ: Satellite03 (è½¨é“é¢1, ä½ç½®3)
2025-08-06 19:37:16,774 - src.stk_interface.stk_manager - INFO - ğŸ›°ï¸ åˆ›å»ºå«æ˜Ÿå¯¹è±¡: Satellite04
2025-08-06 19:37:18,805 - src.stk_interface.stk_manager - INFO - âœ… ä¼ æ’­å™¨ç±»å‹è®¾ç½®æˆåŠŸ
2025-08-06 19:37:18,805 - src.stk_interface.stk_manager - INFO - âœ… å‚æ•° semi_axis = 8171.0 éªŒè¯é€šè¿‡
2025-08-06 19:37:18,806 - src.stk_interface.stk_manager - INFO - âœ… å‚æ•° eccentricity = 0.0 éªŒè¯é€šè¿‡
2025-08-06 19:37:18,806 - src.stk_interface.stk_manager - INFO - âœ… å‚æ•° inclination = 51.856 éªŒè¯é€šè¿‡
2025-08-06 19:37:18,806 - src.stk_interface.stk_manager - INFO - âœ… å‚æ•° raan = 0.0 éªŒè¯é€šè¿‡
2025-08-06 19:37:18,806 - src.stk_interface.stk_manager - INFO - âœ… å‚æ•° arg_of_perigee = 0.0 éªŒè¯é€šè¿‡
2025-08-06 19:37:18,806 - src.stk_interface.stk_manager - INFO - âœ… å‚æ•° mean_anomaly = 135.0 éªŒè¯é€šè¿‡
2025-08-06 19:37:18,806 - src.stk_interface.stk_manager - INFO - ğŸ”„ ä½¿ç”¨Kepleriané«˜åº¦æ–¹æ³•...
2025-08-06 19:37:19,157 - src.stk_interface.stk_manager - INFO - âœ… Kepleriané«˜åº¦æ–¹æ³•æˆåŠŸ
2025-08-06 19:37:19,262 - src.stk_interface.stk_manager - INFO - âœ… åœ°é¢è½¨è¿¹é…ç½®æˆåŠŸ
2025-08-06 19:37:19,269 - src.stk_interface.stk_manager - INFO - âœ… å«æ˜Ÿåˆ›å»ºæˆåŠŸ: Satellite04
2025-08-06 19:37:19,384 - src.stk_interface.stk_manager - INFO - ğŸ”­ åˆ›å»ºä¼ æ„Ÿå™¨: Satellite04_Payload
2025-08-06 19:37:20,402 - src.stk_interface.stk_manager - INFO - âœ“ ä¼ æ„Ÿå™¨æ¨¡å¼è®¾ç½®ä¸ºåœ†é”¥
2025-08-06 19:37:20,613 - src.stk_interface.stk_manager - INFO - âœ“ è·å–Patternå¯¹è±¡æˆåŠŸï¼Œç±»å‹: <class 'win32com.client.CDispatch'>
2025-08-06 19:37:20,622 - src.stk_interface.stk_manager - INFO - âœ“ è®¾ç½®å¤–é”¥è§’æˆåŠŸ: 90.0Â°
2025-08-06 19:37:20,634 - src.stk_interface.stk_manager - INFO - âœ“ è®¾ç½®å†…é”¥è§’æˆåŠŸ: 66.0Â°
2025-08-06 19:37:20,658 - src.stk_interface.stk_manager - WARNING - âš ï¸ è®¾ç½®åœ†é”¥å‚æ•°å¤±è´¥: (-2147352567, 'å‘ç”Ÿæ„å¤–ã€‚', (0, None, 'Value 1.04719755 rad is invalid. Value range is 5.23598776 rad to 6.28318531 rad', None, 0, -2147220989), None)
2025-08-06 19:37:20,664 - src.stk_interface.stk_manager - INFO - âœ“ å•ç‹¬è®¾ç½®å¤–é”¥è§’æˆåŠŸ: 90.0Â°
2025-08-06 19:37:20,666 - src.stk_interface.stk_manager - INFO - âœ… åœ†é”¥è§†åœºé…ç½®æˆåŠŸ
2025-08-06 19:37:20,716 - src.stk_interface.stk_manager - INFO - âœ… æŒ‡å‘å‚æ•°é…ç½®æˆåŠŸ
2025-08-06 19:37:21,317 - src.stk_interface.stk_manager - INFO - âœ“ è·ç¦»çº¦æŸè®¾ç½®æˆåŠŸ: 0-5000km
2025-08-06 19:37:21,322 - src.stk_interface.stk_manager - INFO - âœ… çº¦æŸå‚æ•°é…ç½®æˆåŠŸ
2025-08-06 19:37:21,322 - src.stk_interface.stk_manager - INFO - âœ… ä¼ æ„Ÿå™¨åˆ›å»ºæˆåŠŸ: Satellite04_Payload
2025-08-06 19:37:21,326 - src.constellation.constellation_manager - INFO - âœ… å«æ˜Ÿåˆ›å»ºæˆåŠŸ: Satellite04 (è½¨é“é¢1, ä½ç½®4)
2025-08-06 19:37:21,379 - src.stk_interface.stk_manager - INFO - ğŸ›°ï¸ åˆ›å»ºå«æ˜Ÿå¯¹è±¡: Satellite05
2025-08-06 19:37:23,403 - src.stk_interface.stk_manager - INFO - âœ… ä¼ æ’­å™¨ç±»å‹è®¾ç½®æˆåŠŸ
2025-08-06 19:37:23,403 - src.stk_interface.stk_manager - INFO - âœ… å‚æ•° semi_axis = 8171.0 éªŒè¯é€šè¿‡
2025-08-06 19:37:23,403 - src.stk_interface.stk_manager - INFO - âœ… å‚æ•° eccentricity = 0.0 éªŒè¯é€šè¿‡
2025-08-06 19:37:23,403 - src.stk_interface.stk_manager - INFO - âœ… å‚æ•° inclination = 51.856 éªŒè¯é€šè¿‡
2025-08-06 19:37:23,403 - src.stk_interface.stk_manager - INFO - âœ… å‚æ•° raan = 0.0 éªŒè¯é€šè¿‡
2025-08-06 19:37:23,403 - src.stk_interface.stk_manager - INFO - âœ… å‚æ•° arg_of_perigee = 0.0 éªŒè¯é€šè¿‡
2025-08-06 19:37:23,403 - src.stk_interface.stk_manager - INFO - âœ… å‚æ•° mean_anomaly = 180.0 éªŒè¯é€šè¿‡
